LEMUR-2-MYRA            
1 66787U 25276EC  26203.47135700  .00005934  00000+0  47196-3 0  9996
2 66787  97.5226 273.2042 0018473  31.8904 328.3435 15.00646858 35509
LEMUR-2 FIKRETDENGIZ    
1 67363U 26004A   26202.95713863  .00004126  00000+0  44896-3 0  9997
2 67363  97.8036 200.9883 0009701  36.3875 323.7999 14.88552806 28457
TWILIGHT-1 OBJECT B     
1 67364U 26004B   26201.98878606  .00001110  00000+0  12740-3 0  9990
2 67364  97.8078 200.0319 0009314  28.9865 331.1867 14.87805943 28319
LEMUR-2-MARIO-SOUSA     
1 67365U 26004C   26203.94420299  .00004767  00000+0  51492-3 0  9998
2 67365  97.8007 201.9554 0009241  35.2361 324.9465 14.88774217 28611
LEMUR-2-SONNENBLUME     
1 67367U 26004E   26203.94851722  .00002415  00000+0  26574-3 0  9990
2 67367  97.8005 201.9290 0008904  35.7911 324.3902 14.88482895 28617
LEMUR-2-WOBLER          
1 67368U 26004F   26203.73487271  .00003829  00000+0  41524-3 0  9994
2 67368  97.8058 201.8775 0008865  28.3272 331.8425 14.88735759 28586
LEMUR-2-GRAM-E-SUE      
1 67370U 26004H   26203.92923520  .00002151  00000+0  23659-3 0  9996
2 67370  97.7993 201.9269 0008125  39.6409 320.5401 14.88616362 28612
LEMUR-2-KATIE           
1 67387U 26004AA  26203.94468344  .00004891  00000+0  50902-3 0  9998
2 67387  97.8053 202.5193 0002772  14.1370 345.9925 14.90299200 28633
LEMUR-2-HCS-BAZUS       
1 67388U 26004AB  26203.94299602  .00004035  00000+0  42098-3 0  9995
2 67388  97.8041 202.4950 0002263  15.6323 344.4965 14.90302590 28635
